STARLINK-37067          
1 68086U 26042T   26078.25002315  .00055138  00000+0  28135-3 0  9996
2 68086  53.1586 146.7161 0001427  41.3560  74.9597 15.80853903  3586
STARLINK-37062          
1 68087U 26042U   26078.25002315  .00080891  00000+0  40950-3 0  9990
2 68087  53.1588 146.7069 0001395  75.2496  45.2998 15.80874861  3586
STARLINK-37059          
1 68088U 26042V   26078.25002315  .00010185  00000+0  55071-4 0  9991
2 68088  53.1587 146.6983 0001215  83.5792  41.2889 15.80877890  3582
STARLINK-37004          
1 68089U 26042W   26078.25002315  .00065286  00000+0  33225-3 0  9990
2 68089  53.1589 146.6894 0001231  86.7228  42.4143 15.80844304  3583
STARLINK-36320          
1 68090U 26042X   26078.66668981 -.01885627  00000+0 -11689-1 0  9994
2 68090  53.1587 144.5867 0000989  91.1258 258.3623 15.79427616  3641
STARLINK-36324          
1 68091U 26042Y   26078.66668981 -.00003233  00000+0 -16937-4 0  9993
2 68091  53.1584 144.6273 0000960  55.4812 273.9597 15.75231488  3648
STARLINK-36896          
1 68092U 26042Z   26078.66668981 -.00019572  00000+0 -95674-4 0  9992
2 68092  53.1622 144.5763 0001199  74.7812 279.8185 15.80910193  3656
STARLINK-36251          
1 68093U 26042AA  26078.66668981  .00024037  00000+0  12497-3 0  9994
2 68093  53.1584 144.5588 0001029  82.8445 280.3365 15.80875845  3643
STARLINK-36787          
1 68094U 26042AB  26078.66668981 -.00017328  00000+0 -10909-3 0  9998
2 68094  53.1588 144.5739 0000851  59.0534 296.1342 15.75242612  3647
STARLINK-36790          
1 68095U 26042AC  26078.66668981  .00010433  00000+0  56337-4 0  9993
2 68095  53.1621 144.5672 0001101  71.4061 287.5044 15.80871180  3641
STARLINK-36328          
1 68096U 26042AD  26078.66668981  .00048022  00000+0  24562-3 0  9993
2 68096  53.1587 144.5315 0001175  75.9239 300.0721 15.80861553  3640
STARLINK-36853          
1 68097U 26042AE  26078.66668981  .00016532  00000+0  87161-4 0  9990
2 68097  53.1624 144.5494 0001227  95.6872 271.7668 15.80867010  3650
GLOBAL-34               
1 68098U 26043A   26077.93050719  .00009586  00000+0  31505-3 0  9996
2 68098  42.0218  22.1556 0005690 345.5564  14.5110 15.31604838  1982
STARLINK-37022          
1 68101U 26044A   26078.66668981 -.00442229  00000+0 -23959-2 0  9999
2 68101  97.2846  39.2818 0001880  93.1585 116.7866 15.81091129  3008
STARLINK-37046          
1 68102U 26044B   26078.66668981 -.00773311  00000+0 -42973-2 0  9996
2 68102  97.2846  39.2838 0001320  89.8663 124.2057 15.81360734  3006
STARLINK-37018          
1 68103U 26044C   26078.66668981 -.00900100  00000+0 -50519-2 0  9990
2 68103  97.2842  39.2852 0001657  88.1772 130.1123 15.81459204  2959
STARLINK-37041          
1 68104U 26044D   26078.66668981 -.01212419  00000+0 -68169-2 0  9991
2 68104  97.2844  39.2895 0001719  79.2787 147.3543 15.81752247  2954
STARLINK-37021          
1 68105U 26044E   26078.66668981 -.01612666  00000+0 -90889-2 0  9994
2 68105  97.2840  39.2909 0001600 106.0694 124.6421 15.82055772  2955
STARLINK-37024          
1 68106U 26044F   26078.66668981 -.01628042  00000+0 -91335-2 0  9997
2 68106  97.2839  39.2923 0001972  95.0362 139.8088 15.82178521  2956
STARLINK-37005          
1 68107U 26044G   26078.66668981 -.01079281  00000+0 -61421-2 0  9996
2 68107  97.2843  39.2866 0001675  79.2742 143.1867 15.81620041  2955
STARLINK-37017          
1 68108U 26044H   26078.66668981 -.01820934  00000+0 -10077-1 0  9996
2 68108  97.2842  39.2950 0001834  87.7812 151.2330 15.82317919  2951
STARLINK-36833          
1 68109U 26044J   26078.66668981 -.01907498  00000+0 -10500-1 0  9999
2 68109  97.2830  39.2968 0002080 100.7258 146.5397 15.82568331  3005
STARLINK-36830          
1 68110U 26044K   26078.66668981 -.01758994  00000+0 -98972-2 0  9996
2 68110  97.2835  39.2954 0001847 105.5976 137.6031 15.82375849  3003
STARLINK-36791          
1 68111U 26044L   26078.66668981 -.01976323  00000+0 -10878-1 0  9993
2 68111  97.2834  39.2993 0001833 101.5673 149.8375 15.82685306  2952
STARLINK-36893          
1 68112U 26044M   26078.66668981 -.01968218  00000+0 -10764-1 0  9992
2 68112  97.2832  39.3008 0001630  96.3608 159.1196 15.82811768  3008
STARLINK-36937          
1 68113U 26044N   26078.66668981 -.02016233  00000+0 -10947-1 0  9998
2 68113  97.2829  39.3041 0001735 101.7293 161.9323 15.83042926  2958
STARLINK-36229          
1 68114U 26044P   26078.66668981 -.01985704  00000+0 -10818-1 0  9993
2 68114  97.2822  39.3017 0001840 106.7446 152.8550 15.82918607  3002
STARLINK-36392          
1 68115U 26044Q   26078.66668981 -.02013246  00000+0 -10899-1 0  9997
2 68115  97.2825  39.3058 0001856 103.4122 164.4292 15.83097111  3004
STARLINK-36805          
1 68116U 26044R   26078.66668981 -.02017624  00000+0 -10928-1 0  9995
2 68116  97.2823  39.3073 0001653 105.2418 166.8781 15.83096658  3007
STARLINK-36844          
1 68117U 26044S   26078.66668981 -.02022958  00000+0 -10900-1 0  9992
2 68117  97.2818  39.3087 0001794 103.5452 172.6358 15.83214207  2952
STARLINK-36789          
1 68118U 26044T   26078.66668981 -.02033791  00000+0 -11072-1 0  9991
2 68118  97.2816  39.3111 0001645 113.0800 167.7712 15.83017665  2955
STARLINK-36850          
1 68119U 26044U   26078.66668981 -.02056672  00000+0 -11161-1 0  9994
2 68119  97.2816  39.3125 0001877 111.0770 173.8668 15.83119657  2954
STARLINK-36868          
1 68120U 26044V   26078.66668981 -.02062972  00000+0 -11194-1 0  9992
2 68120  97.2811  39.3144 0001692 103.0194 186.1800 15.83134144  2951
STARLINK-36855          
1 68121U 26044W   26078.66668981 -.02074465  00000+0 -11234-1 0  9998
2 68121  97.2809  39.3165 0001805 105.1968 188.1796 15.83194791  2950
STARLINK-36366          
1 68122U 26044X   26078.66668981 -.02047975  00000+0 -11010-1 0  9997
2 68122  97.2806  39.3184 0001535  94.8815 202.5377 15.83307209  3007
STARLINK-36922          
1 68123U 26044Y   26078.66668981 -.01999300  00000+0 -10621-1 0  9992
2 68123  97.2803  39.3223 0001843 107.0353 198.5638 15.83472042  3007
STARLINK-36938          
1 68124U 26044Z   26078.66668981 -.02109833  00000+0 -11213-1 0  9996
2 68124  97.2798  39.3227 0001688 100.3629 209.2327 15.83649275  3003
STARLINK-36839          
1 68125U 26044AA  26078.66668981 -.02026998  00000+0 -10856-1 0  9999
2 68125  97.2806  39.3208 0001594 102.6140 198.9810 15.83349830  2950
ECHOSTAR 25             
1 68126U 26045A   26078.10295861 -.00000047  00000+0  00000+0 0  9995
2 68126   9.9581  67.2584 4747686 180.7477 178.3967  1.79782376   196
ICOR SV                 
1 68127U 26046A   26072.90953491  .00482503  92133-4  10434-2 0  9997
2 68127 123.0797 224.1306 0140888 188.2572 171.6170 15.82606913   290
FIREFLY ALPHA R/B       
1 68128U 26046B   26078.27136572  .00028560  00000+0  40086-3 0  9990
2 68128 123.0919 247.3869 0014453 357.9669   2.1330 15.56452343  1135
GUOWANG GROUP 20 OBJECT*
1 68129U 26047A   26078.05554436 -.00000149  00000+0  21030-5 0  9995
2 68129  50.0054  32.2608 0008899 282.8383  77.1528 14.05638333   883
GUOWANG GROUP 20 OBJECT*
1 68130U 26047B   26078.05501345 -.00000148  00000+0  25318-5 0  9990
2 68130  50.0044  32.2582 0007546 277.9720  82.0329 14.05761022   878
GUOWANG GROUP 20 OBJECT*
1 68131U 26047C   26078.62349940 -.00000148  00000+0  24342-5 0  9991
2 68131  50.0037  29.9293 0008114 287.0161  72.9855 14.05810373   962
GUOWANG GROUP 20 OBJECT*
1 68132U 26047D   26078.12556338 -.00000146  00000+0  36920-5 0  9991
2 68132  50.0078  31.9684 0008434 289.4802  70.5192 14.05881519   887
GUOWANG GROUP 20 OBJECT*
1 68133U 26047E   26076.06403444 -.00000145  00000+0  46301-5 0  9995
2 68133  50.0041  40.3867 0006830 274.9069  85.1056 14.05931996   603
GUOWANG GROUP 20 OBJECT*
1 68134U 26047F   26077.84040685 -.00000143  00000+0  53437-5 0  9993
2 68134  50.0090  33.1280 0006392 285.5382  74.4818 14.06079857   849
GUOWANG GROUP 20 OBJECT*
1 68135U 26047G   26078.19590449 -.00000144  00000+0  48751-5 0  9995
2 68135  50.0116  31.6805 0007386 291.8734  68.1386 14.06047332   900
GUOWANG GROUP 20 OBJECT*
1 68136U 26047H   26077.98225515 -.00000146  00000+0  41386-5 0  9990
2 68136  50.0089  32.5476 0007509 297.2561  62.7580 14.06144171   869
GUOWANG GROUP 20 OBJECT*
1 68137U 26047J   26077.98170420 -.00000144  00000+0  48405-5 0  9992
2 68137  50.0089  32.5436 0005912 296.0035  64.0262 14.06269806   871
CZ-8A R/B               
1 68138U 26047K   26078.87634104 -.00000101  00000+0  28557-4 0  9994
2 68138  49.9540  28.5452 0044795 173.4098 186.7407 14.12228534   999
SHIYAN-30 03            
1 68139U 26048A   26078.67767566  .00002209  00000+0  21820-3 0  9998
2 68139  34.9998  84.1841 0004000 289.8785  70.1488 14.91676907   994
SHIYAN-30 04            
1 68140U 26048B   26078.67845215  .00002126  00000+0  21009-3 0  9995
2 68140  34.9913  84.1919 0002508 292.9201  67.1239 14.91687416   995
CZ-2D R/B               
1 68141U 26048C   26078.66356019  .00001457  00000+0  13150-3 0  9998
2 68141  35.1295  84.2980 0015055  51.5041 308.7015 14.95530993   990
STARLINK-36604          
1 68142U 26049A   26078.57838177 -.00601426  12954-3 -10855-2 0  9997
2 68142  97.2797  98.1391 0000555  65.4234 294.7104 16.01563866   968
STARLINK-36995          
1 68143U 26049B   26078.26577997 -.00531426  10413-3 -90105-3 0  9991
2 68143  97.2800  97.7985 0000959  13.3742 346.7563 16.02629136   918
STARLINK-36244          
1 68145U 26049D   26078.01410660 -.00404794  63915-4 -62437-3 0  9999
2 68145  97.2798  97.5283 0000395  95.7237 264.4089 16.04211622   875
STARLINK-36980          
1 68146U 26049E   26078.57630926 -.00620452  13836-3 -10788-2 0  9998
2 68146  97.2792  98.1417 0000470  81.7263 278.4069 16.02210843   969
STARLINK-37055          
1 68147U 26049F   26078.51507610 -.00358165  49580-4 -62842-3 0  9990
2 68147  97.2798  98.0710 0002763  38.6438 321.5038 16.02010555   956
